{
    "links": {
        "self": "http://www.neowsapp.com/rest/v1/neo/3734101?api_key=iIulBulltgU6a56xZRHN4H3l9WmuAYTsLGpBGhQ2"
    },
    "id": "3734101",
    "neo_reference_id": "3734101",
    "name": "(2015 VV65)",
    "designation": "2015 VV65",
    "nasa_jpl_url": "http://ssd.jpl.nasa.gov/sbdb.cgi?sstr=3734101",
    "absolute_magnitude_h": 24.6,
    "estimated_diameter": {
        "kilometers": {
            "estimated_diameter_min": 0.0319561887,
            "estimated_diameter_max": 0.0714562102
        },
        "meters": {
            "estimated_diameter_min": 31.9561886721,
            "estimated_diameter_max": 71.4562101727
        },
        "miles": {
            "estimated_diameter_min": 0.0198566489,
            "estimated_diameter_max": 0.0444008168
        },
        "feet": {
            "estimated_diameter_min": 104.8431420431,
            "estimated_diameter_max": 234.436392583
        }
    },
    "is_potentially_hazardous_asteroid": false,
    "close_approach_data": [
        {
            "close_approach_date": "2015-11-12",
            "close_approach_date_full": "2015-Nov-12 17:19",
            "epoch_date_close_approach": 1447348740000,
            "relative_velocity": {
                "kilometers_per_second": "15.9295096579",
                "kilometers_per_hour": "57346.2347684656",
                "miles_per_hour": "35632.7201537724"
            },
            "miss_distance": {
                "astronomical": "0.0942867313",
                "lunar": "36.6775384757",
                "kilometers": "14105094.171742331",
                "miles": "8764499.1030969278"
            },
            "orbiting_body": "Earth"
        }
    ],
    "orbital_data": {
        "orbit_id": "12",
        "orbit_determination_date": "2017-04-06 08:30:46",
        "first_observation_date": "2015-11-09",
        "last_observation_date": "2015-11-20",
        "data_arc_in_days": 11,
        "observations_used": 49,
        "orbit_uncertainty": "8",
        "minimum_orbit_intersection": ".0941467",
        "jupiter_tisserand_invariant": "4.614",
        "epoch_osculation": "2457338.5",
        "eccentricity": ".2241314229202124",
        "semi_major_axis": "1.391858567034002",
        "inclination": "29.68658777382495",
        "ascending_node_longitude": "230.833849125438",
        "orbital_period": "599.7787672384727",
        "perihelion_distance": "1.079899325900983",
        "perihelion_argument": "168.0269935907132",
        "aphelion_distance": "1.70381780816702",
        "perihelion_time": "2457327.723787602281",
        "mean_anomaly": "6.468112369233591",
        "mean_motion": ".6002213143648408",
        "equinox": "J2000",
        "orbit_class": {
            "orbit_class_type": "AMO",
            "orbit_class_description": "Near-Earth asteroid orbits similar to that of 1221 Amor",
            "orbit_class_range": "1.017 AU < q (perihelion) < 1.3 AU"
        }
    },
    "is_sentry_object": false
}